[{"name":"BEIDOU-2 IGSO-5","line1":"1 37948U 11073A   26175.65702808 -.00000196  00000+0  00000+0 0  9995","line2":"2 37948  47.6633 271.4526 0114223 222.0346 107.5350  1.00272136 53204"},{"name":"LUCH-5A","line1":"1 37951U 11074B   26177.49558885 -.00000047  00000+0  00000+0 0  9993","line2":"2 37951   8.7772  73.6725 0002696  31.2585 155.0259  1.00272324 53146"},{"name":"BEIDOU-2 G5","line1":"1 38091U 12008A   26177.17830617  .00000064  00000+0  00000+0 0  9996","line2":"2 38091   3.5966  69.6505 0008661 276.0937  51.4711  1.00275587 52458"},{"name":"BEIDOU-2 M3","line1":"1 38250U 12018A   26176.78001372 -.00000106  00000+0  00000+0 0  9996","line2":"2 38250  55.7497 304.5848 0020315 273.3590  86.3983  1.86229866 96100"},{"name":"BEIDOU-2 M4","line1":"1 38251U 12018B   26177.24927972 -.00000103  00000+0  00000+0 0  9999","line2":"2 38251  55.6492 303.7834 0011702 273.7859  86.0713  1.86229631 96112"},{"name":"SES-5","line1":"1 38652U 12036A   26177.73791816  .00000043  00000+0  00000+0 0  9996","line2":"2 38652   0.0452 318.0989 0002630 150.5218  76.8565  1.00261199 44552"},{"name":"BEIDOU-2 M6","line1":"1 38775U 12050B   26176.95897983 -.00000089  00000+0  00000+0 0  9994","line2":"2 38775  56.5518  62.6042 0013535 358.1579   1.8786  1.86231118 93471"},{"name":"GSAT-10","line1":"1 38779U 12051B   26177.68205359 -.00000154  00000+0  00000+0 0  9993","line2":"2 38779   0.0594 259.0415 0008169 191.7626 152.5629  1.00272048 50195"},{"name":"NAVSTAR 67 (USA 239)","line1":"1 38833U 12053A   26177.29038387  .00000028  00000+0  00000+0 0  9997","line2":"2 38833  53.5875 143.2264 0180813  65.8944 295.9517  2.00567692 99620"},{"name":"GSAT0103 (GALILEO-FM3)","line1":"1 38857U 12055A   26177.27442491 -.00000038  00000+0  00000+0 0  9990","line2":"2 38857  55.8119 101.2962 0004643 306.5520  53.3783  1.70473541 85162"},{"name":"BEIDOU-2 G6","line1":"1 38953U 12059A   26177.75351124 -.00000168  00000+0  00000+0 0  9990","line2":"2 38953   4.4461  73.4247 0009722 328.6677 228.0807  1.00271369 50006"},{"name":"LUCH-5B","line1":"1 38977U 12061A   26177.44850266 -.00000136  00000+0  00000+0 0  9991","line2":"2 38977  10.5037  49.7912 0002511 136.3934 233.5935  1.00272700 49701"},{"name":"COSMOS 2485 [GLONASS-M]","line1":"1 39155U 13019A   26177.29519291 -.00000060  00000+0  00000+0 0  9993","line2":"2 39155  65.4249  73.2985 0022912 233.1072 126.7203  2.13103278102475"},{"name":"NAVSTAR 68 (USA 242)","line1":"1 39166U 13023A   26176.65900812 -.00000046  00000+0  00000+0 0  9996","line2":"2 39166  54.4973 268.6283 0141475  51.0602 310.2306  2.00563550 96051"},{"name":"IRNSS-1A","line1":"1 39199U 13034A   26176.74993227  .00000048  00000+0  00000+0 0  9997","line2":"2 39199  35.7396  63.7472 0018406 178.4200 356.6391  1.00277689 47459"},{"name":"NAVSTAR 69 (USA 248)","line1":"1 39533U 14008A   26177.15932725  .00000041  00000+0  00000+0 0  9996","line2":"2 39533  53.6559 148.9537 0084215 231.3935 127.8246  2.00560425 89866"},{"name":"ASTRA 5B","line1":"1 39617U 14011B   26177.59900950  .00000148  00000+0  00000+0 0  9994","line2":"2 39617   0.0533 324.6786 0002213 114.4875  74.6662  1.00272427 44760"},{"name":"COSMOS 2492 [GLONASS-M]","line1":"1 39620U 14012A   26174.90776451 -.00000082  00000+0  00000+0 0  9996","line2":"2 39620  65.2933 313.7069 0010214 323.0851  36.8355  2.13103141 95380"},{"name":"IRNSS-1B","line1":"1 39635U 14017A   26176.74975894  .00000139  00000+0  00000+0 0  9995","line2":"2 39635  28.9107 240.2561 0023691 197.5967 161.0226  1.00269592 44875"},{"name":"LUCH-5V","line1":"1 39727U 14023A   26177.61317826 -.00000262  00000+0  00000+0 0  9994","line2":"2 39727   5.1564  69.6550 0002466  48.8969 111.6854  1.00272013 44453"},{"name":"NAVSTAR 70 (USA 251)","line1":"1 39741U 14026A   26176.93636040 -.00000104  00000+0  00000+0 0  9994","line2":"2 39741  56.4938 331.1769 0038118 326.3471  33.4038  2.00560487 88715"},{"name":"COSMOS 2500 [GLONASS-M]","line1":"1 40001U 14032A   26176.95444264 -.00000085  00000+0  00000+0 0  9997","line2":"2 40001  65.2269 313.3837 0007692 185.3330 174.6480  2.13105954 93644"},{"name":"NAVSTAR 71 (USA 256)","line1":"1 40105U 14045A   26177.02815772 -.00000068  00000+0  00000+0 0  9992","line2":"2 40105  55.3587  88.1127 0033686 118.2750 242.0678  2.00559107 86251"},{"name":"GSAT0201 (GALILEO 5)","line1":"1 40128U 14050A   26175.42373058 -.00000085  00000+0  00000+0 0  9990","line2":"2 40128  48.8673 273.1394 1675706 179.6719 180.5031  1.85520133 78454"},{"name":"GSAT0202 (GALILEO 6)","line1":"1 40129U 14050B   26177.29620126 -.00000065  00000+0  00000+0 0  9997","line2":"2 40129  48.8820 272.1482 1677100 180.4759 179.3977  1.85520779 80656"},{"name":"IRNSS-1C","line1":"1 40269U 14061A   26176.68398682 -.00000155  00000+0  00000+0 0  9995","line2":"2 40269   6.5386  88.7700 0022592   3.4967 150.6688  1.00267985 42772"},{"name":"NAVSTAR 72 (USA 258)","line1":"1 40294U 14068A   26176.89738811 -.00000085  00000+0  00000+0 0  9997","line2":"2 40294  56.9936  30.6191 0067228  70.9208 289.8621  2.00576883 85389"},{"name":"COSMOS 2501 [GLONASS-K]","line1":"1 40315U 14075A   26177.21663207  .00000105  00000+0  00000+0 0  9994","line2":"2 40315  63.6151 190.0588 0022237 210.4369 149.4832  2.13109644 90043"},{"name":"NAVSTAR 73 (USA 260)","line1":"1 40534U 15013A   26177.03735334  .00000087  00000+0  00000+0 0  9990","line2":"2 40534  53.1674 203.8114 0109747  40.1916 320.6840  2.00550980 82004"},{"name":"GSAT0203 (GALILEO 7)","line1":"1 40544U 15017A   26177.59813448 -.00000096  00000+0  00000+0 0  9990","line2":"2 40544  56.7831 341.3391 0002131 269.4919  90.4779  1.70476365 69369"},{"name":"GSAT0204 (GALILEO 8)","line1":"1 40545U 15017B   26174.92103312 -.00000099  00000+0  00000+0 0  9990","line2":"2 40545  56.7909 341.4306 0002093 241.0442 118.9316  1.70475870 32360"}]